[{"OBJECT_NAME":"STARLINK-4412","OBJECT_ID":"2022-099N","EPOCH":"2026-03-09T22:13:07.504320","MEAN_MOTION":15.01261959,"ECCENTRICITY":0.00017609,"INCLINATION":97.6028,"RA_OF_ASC_NODE":190.4088,"ARG_OF_PERICENTER":62.3246,"MEAN_ANOMALY":297.8157,"EPHEMERIS_TYPE":0,"CLASSIFICATION_TYPE":"U","NORAD_CAT_ID":53477,"ELEMENT_SET_NO":999,"REV_AT_EPOCH":19671,"BSTAR":3.6846159e-5,"MEAN_MOTION_DOT":4.15e-6,"MEAN_MOTION_DDOT":0},{"OBJECT_NAME":"COSMOS 2251 DEB","OBJECT_ID":"1993-036BGY","EPOCH":"2026-03-01T01:33:38.892672","MEAN_MOTION":14.73348638,"ECCENTRICITY":0.01207011,"INCLINATION":73.9501,"RA_OF_ASC_NODE":201.0621,"ARG_OF_PERICENTER":60.0186,"MEAN_ANOMALY":301.2902,"EPHEMERIS_TYPE":0,"CLASSIFICATION_TYPE":"U","NORAD_CAT_ID":37126,"ELEMENT_SET_NO":999,"REV_AT_EPOCH":9252,"BSTAR":0.00023487256,"MEAN_MOTION_DOT":1.671e-5,"MEAN_MOTION_DDOT":0}]
